Keyword,Title,Address,Category,Latitude,Longitude,Phone Number
"Agrovets in NAirobi, Kenya",Jumbo Agrovet Limited,"Lotus House, Hailes Selassie",Agrochemicals supplier,-1.2885866,36.8284003,0722 510291
"Agrovets in NAirobi, Kenya",Kasarani Agrovet online deliveries Nairobi,"Goshen Gardens, Block B, Off Kasarani Mwiki Rd",Animal feed store,-1.2170228,36.8953518,0791 226344
"Agrovets in NAirobi, Kenya",Masimba Agrovet Ltd,"PWF5+4C6, Opposite Mama Villa, After Masimba Bus Stage, Kayole Spine Rd",Agrochemicals supplier,-1.2772066,36.9085091,0721 794880
"Agrovets in NAirobi, Kenya",Skylab Cropcare Limited/ Agrovet,"Shop No. G3/ G4, Ground Floor, Shepherd Arcade, Racecourse Rd.",Hardware store,-1.28563,36.830521,0725 881199
"Agrovets in NAirobi, Kenya","Farmers World Limited-(Agrovet), Nairobi","Globe Business Center, Slip road/Kijabe Street",Agricultural service,-1.2789934,36.82042,0719 535345
"Agrovets in NAirobi, Kenya",Bonnie Agrovet Shop,Agrochemicals supplier,Agrochemicals supplier,-1.2134096,36.9049005,0792 696104
"Agrovets in NAirobi, Kenya",Agro-Pests Solutions Agrovet (Githurai branch),45 Thika Rd,Agrochemicals supplier,-1.2070373,36.9150568,0792 400331
"Agrovets in NAirobi, Kenya",Arise And Shine Agrovet,Fertilizer supplier,Fertilizer supplier,-1.2884592,36.8302991,0722 997996
"Agrovets in NAirobi, Kenya",Ciira Agrovet Supplies Limited,"PR9F+PV, Keekorok Rd",Agricultural service,-1.2807645,36.8244836,0713 483593
"Agrovets in NAirobi, Kenya",Mifugo Agrovet centre,Haile Selassie Ave,Agrochemicals supplier,-1.2882678,36.828985,0757 057376
"Agrovets in NAirobi, Kenya",GOOD HEARTS AGROVET,Agricultural service,Agricultural service,-1.2882382,36.8285738,0768 867177
"Agrovets in NAirobi, Kenya",Githurai 45 Agrovet,Mwihoko Rd,Hay supplier,-1.2080962,36.9261452,0798 395262
"Agrovets in NAirobi, Kenya",Guelph Enterprise Agrovet,"PR9G+6FG, River Rd",Agricultural service,-1.281934,36.8262094,0722 746311
"Agrovets in NAirobi, Kenya",AECARE AGROVET LTD,"Nairobi, CBD Mfangano street",Agrochemicals supplier,-1.2875561,36.8285822,0724 933554
"Agrovets in NAirobi, Kenya",Wibiliv Wakulima Mashinani Agrovet,"Richmond House, Mfangano St",Agricultural service,-1.2866874,36.8275651,0724 035888
"Agrovets in NAirobi, Kenya",Nairobi Mega Agrovet Services Ltd,Veterinarian,Veterinarian,-1.3271643,36.8519537,020 828100
"Agrovets in NAirobi, Kenya",Farmers Solution Agrovet,"Opposite Linco Store, Mama Ngina St",Veterinary care,-1.2855356,36.8232833,0723 694728
"Agrovets in NAirobi, Kenya",SHAMBA AGROVET,"KOMBO MUNYU,Eastleigh North",Farm equipment supplier,-1.2706541,36.846857,020 6762537
"Agrovets in NAirobi, Kenya",AGRIGUARD Agrovet,Mondlane St,Agrochemicals supplier,-1.2830722,36.823876,0703 297837
"Agrovets in NAirobi, Kenya",KUZA AGROVET,Haile Selassie Ave,Agrochemicals supplier,-1.2880543,36.8293241,0759 896408
"Agrovets in NAirobi, Kenya",Nguzo Agrovet Limited Nairobi,"Kilimabogo House, Haile Selassie Avenue",Agrochemicals supplier,-1.2880604,36.8294039,0701 004488
"Agrovets in NAirobi, Kenya",Limuru Agrovet Suppliers,"Njengi Plaza, Rongai Market Rd",Arborist service,-1.2836681,36.8248773,0714 328322
"Agrovets in NAirobi, Kenya",Neta Agri Supplies,11 Mfangano St,Agricultural service,-1.2873472,36.8282666,0722 909576
"Agrovets in NAirobi, Kenya",Jambar Agrovet Ltd,Mfangano street,Agricultural product wholesaler,-1.2873912,36.8282582,0719 438552
"Agrovets in NAirobi, Kenya",Nikifarmcare E A Ltd,"Starehe, Barot House, Kijabe St",General store,-1.2782927,36.8196975,020 8098171
"Agrovets in NAirobi, Kenya",Unique Agrovet Supplies,New,Animal feed store,-1.2491426,36.9426146,0791 226344
"Agrovets in NAirobi, Kenya",Kulima Agrovet Centre,PR6H+H88,Agricultural service,-1.2885765,36.8283297,0789 365373
"Agrovets in NAirobi, Kenya",VETMA AGROVET,Veterinarian,Veterinarian,-1.3077989,36.9034356,0790 079326
"Agrovets in NAirobi, Kenya",One way Agrovet,"PR6H+XFW, Reli co-op hse, Mfangano St",Store,-1.2875196,36.8287185,0708 886152
"Agrovets in NAirobi, Kenya",NAWESO AGROVET,,Agrochemicals supplier,-1.2645935,36.7461164,0754 144899
"Agrovets in NAirobi, Kenya",Kilimo Central Agrovet,Market Road Githunguru Duruma Rd,Veterinary care,-1.283821,36.8300316,0723 961898
"Agrovets in NAirobi, Kenya",Apechem Agrovet,Jamia Mosque Mosque Road,General store,-1.2835342,36.8208583,0722 948103
"Agrovets in NAirobi, Kenya",Blessed Farm Agrovet_Utawala-Embakasi- Nairobi,Utawala fagilia,Agricultural service,-1.2836133,36.9709759,0719 563464
"Agrovets in NAirobi, Kenya",Sunton Agrovet And Animal Feeds And Chicks,"QWCC+2R8, Kasarani Mwiki Rd",Veterinary pharmacy,-1.229962,36.9220804,0707 314131
"Agrovets in NAirobi, Kenya",Fur World Agrovet and Animal Feeds,"At kamutiini stage, Kasarani Mwiki Rd",Veterinary pharmacy,-1.2334949,36.9294856,0728 685462
"Agrovets in NAirobi, Kenya",Jomoh Agrovet Shop,Kwa Reuben Embakasi South,Hay supplier,-1.319272,36.850078,0722 386226
"Agrovets in NAirobi, Kenya",AgroPests Solutions Agrovet,Mang Building Haile Selasie Avenue Opposite KFA - Bus Station,Agricultural production,-1.2876259,36.8300187,0728 400331
"Agrovets in NAirobi, Kenya",NIKIFARM AGROVET SUPPLIES,Veterinarian,Veterinarian,-1.279432,36.826318,020 2244525
"Agrovets in NAirobi, Kenya",Carefarm Agrovet ruaka square,Limuru Rd,Agricultural service,-1.206174,36.7819658,0707 352247
"Agrovets in NAirobi, Kenya",Waikiki Agrovet Supplies,"VX26+G9C, Ground Floor, Bushgate Towers, Railways Street, Ruiru, Ruiru Kamiti Road",Agrochemicals supplier,-1.1486989,36.9608933,0710 652867
"Agrovets in NAirobi, Kenya",Jumbo Agrovet,"Mang' Bldg Starehe, Haile Selassie Ave",Farm equipment supplier,-1.2640211,36.7202331,0722 510291
"Agrovets in NAirobi, Kenya",Gratia Poultry Farm & Agrovet,Mwihoko Rd,Agrochemicals supplier,-1.2051317,36.918073,0712 749425
"Agrovets in NAirobi, Kenya",Amiran Kenya Ltd,Airport N Rd,Agricultural service,-1.3253768,36.898321,0719 095000
"Agrovets in NAirobi, Kenya",Kamro Agrovet Ltd,"Starehe, Gill House, Tom Mboya St",General store,-1.2872585,36.8271301,0722 776902
"Agrovets in NAirobi, Kenya",Savannah Agrovet & Hatchery Equipment,"Information House, Mfangano Street Shop D-8",Agricultural service,-1.2872008,36.8281445,0722 362981
"Agrovets in NAirobi, Kenya",Vetagro & Pulpers Company Ltd.,Duruma Rd,Agrochemicals supplier,-1.2815722,36.8266074,0721 932932
"Agrovets in NAirobi, Kenya",Brilliance House Agrovet,Biashara St,Agricultural product wholesaler,-1.1710437,36.8280228,0111 847294
"Agrovets in NAirobi, Kenya",Wakulima Agro - Vet,"PPP9+GJQ, Uthiru Shopping Centre, Naivasha Rd",Agricultural service,-1.2636629,36.7191095,0725 580701
"Agrovets in NAirobi, Kenya",Geosim Ltd (Agrovet),"Rwathia House, Ground Floor Racecourse Rd",Veterinarian,-1.2858993,36.8304881,0713 202070
"Agrovets in NAirobi, Kenya",Utawala Agrovet Supplies,Utawala Utawala Embakasi East,Agrochemicals supplier,-1.2889226,36.9723733,0723 870386
"Agrovets in NAirobi, Kenya",RuaiI Agrovet,off kangundo Ruai,Agrochemicals supplier,-1.26735,36.989723,0720 063063
"Agrovets in NAirobi, Kenya",QAVAH ANIMAL FEEDS AND AGROVET.,Kagwathi road mihango utawala,Animal feed store,-1.2852839,36.9507092,0720 693839
"Agrovets in NAirobi, Kenya",Co-Heirs Agrovet,Waiyaki Wy,Veterinarian,-1.2596891,36.7054105,0722 520035
"Agrovets in NAirobi, Kenya",PINE FARMERS CENTRE- AGROVET,"NOT APPLICABLE, Utawala Complex, Eastern Bypass",Agrochemicals supplier,-1.2808833,36.9642521,0700 343531
"Agrovets in NAirobi, Kenya",Green Hill Agrovet,"VX23+WJ9, Opposite Ruiru Sub - County Market, Off Ruiru Kamiti Road",Agrochemicals supplier,-1.1477182,36.9540996,0723 939407
"Agrovets in NAirobi, Kenya",Twin Bell Chemist and Agrovet,"PR9G+CJP, WINA PLAZA GROUND FLOOR, CROSS ROAD THIKA",Pharmacy,-1.2814077,36.8265662,0724 877934
"Agrovets in NAirobi, Kenya",MANYATTA AGROVET AND ANIMAL FEEDS,"Corner D, Manyatta Rd",Animal feed store,-1.2870236,37.0038064,0707 731604
"Agrovets in NAirobi, Kenya",Grada Agrovet (Ruiru Farmers Centre),Ruiru Kamiti Road,Agrochemicals supplier,-1.1477606,36.9610175,0722 436216
"Agrovets in NAirobi, Kenya",CAPITAL AGROVET,QWVJ+F7Q,Veterinary pharmacy,-1.206288,36.9307328,0725 264953
"Agrovets in NAirobi, Kenya",PHILMER AGROVET,P.O BOX 10616,Veterinary pharmacy,-1.2771015,36.9082344,0116 159666
"Agrovets in NAirobi, Kenya",Jaymaish Pet shop & Agrovet Ruaka Runda,Pet store,Pet store,-1.2082384,36.7874903,0702 745381
"Agrovets in NAirobi, Kenya",Fuga Enterprises Limited,"Uthiru Shops Uthiru, Kiambu Nairobi KE",Agricultural service,-1.2638185,36.7199874,0721 369227
"Agrovets in NAirobi, Kenya",Elgon Kenya Ltd,"Behind Lab & Allied, National Park East Gate Road, Off Mombasa Road",Agrochemicals supplier,-1.3330126,36.8653874,0110 094464
"Agrovets in NAirobi, Kenya",Carefarm Agrovet ruaka,Ruaka rs opposite cleanshelf supermarket KE,Veterinary pharmacy,-1.2064485,36.7845207,0722 203578
"Agrovets in NAirobi, Kenya",jaymaish agrovet,Nyangumi Rd,Veterinary pharmacy,-1.2921673,36.7874891,0702 745381
"Agrovets in NAirobi, Kenya",Wikare Agrovet & Allied Services,Eastern By Pass,Agrochemicals supplier,-1.1601576,36.9410291,0720 754938
"Agrovets in NAirobi, Kenya",Kianda Agrovet,"JQ37+H4V, Ground Floor, Magadi Rd",Agrochemicals supplier,-1.3960157,36.7627955,0716 154967
"Agrovets in NAirobi, Kenya",Nairobi Farmers Store,"PR6J+H53, Weruga Lane",Pharmacy,-1.2886144,36.8304121,0720 367985
"Agrovets in NAirobi, Kenya",Jodys Agrovet,"PXJR+MF9, Ground Floor, Magana Plaza, Opposite Ruai Girls Secondary School, Kangundo Rd",Animal feed store,-1.268348,36.9912441,0720 462764
"Agrovets in NAirobi, Kenya",Jemorin Agrovet,"PR4C+W48, Narok East",Veterinarian,-1.292713,36.8203431,0703 737010
"Agrovets in NAirobi, Kenya",Goodwish Agrovet,Kiambu Rd,Veterinarian,-1.1618962,36.8219568,0722 243563
"Agrovets in NAirobi, Kenya",Vetplan Agrovet Kenchic Agent,JWJQ+4FJ,Veterinary care,-1.3696688,36.9386382,0728 355005
"Agrovets in NAirobi, Kenya",Lessos Agrovets,"Kapsabet main Street, Next To Baraton Building",Agrochemicals supplier,-1.2720571,36.8141827,0712 046859
"Agrovets in NAirobi, Kenya",Bondeni Agrovet,"QWV9+JV8, mwihoko kiriri road",Animal feed store,-1.2059657,36.9196884,0725 649101
"Agrovets in NAirobi, Kenya",Farmland Agrovets,"Chege building, Kangundo Rd",Animal feed store,-1.2796069,37.1105571,0725 657337
"Agrovets in NAirobi, Kenya",Greenland agrovet,Karura,Veterinarian,-1.1938186,36.7315839,0728 727181
"Agrovets in NAirobi, Kenya",Agrovet Agricultural Consultancy And Pest Control,"Amrash Business Park Eastern Bypass Rd, Rd to Utawala Academy",Pest control service,-1.2884905,36.9509428,0720 318775
"Agrovets in NAirobi, Kenya",Pharmisinya Agrovet,"No. 468, Nimmi Studio Building, Ronald Ngala St",Pharmacy,-1.287392,36.830774,0722 484452
"Agrovets in NAirobi, Kenya",Agrichem Africa Ltd,"QV3M+RQ8, Road",Agriculture,-1.2454621,36.8844559,0720 325144
"Agrovets in NAirobi, Kenya",Ultravetis East Africa Ltd,Nanyuki Rd,Agrochemicals supplier,-1.3075273,36.8644506,0722 207888
"Agrovets in NAirobi, Kenya",A.B.I Organic Agriculture Ltd.,"Fedha Plaza, Mpaka Rd",Agricultural service,-1.2634652,36.8065811,0769 047779
"Agrovets in NAirobi, Kenya",PesaPoint POS Skycom - Agrovet,Kenyatta Ave,Bank,-1.285126,36.819519,020 2853300
"Agrovets in NAirobi, Kenya",Wakulima Agrovet,QWV9+JCR,Veterinary care,-1.205888,36.9185018,0718 283648
"Agrovets in NAirobi, Kenya",vetagro supplies,"PR4C+Q5P, A104",Agrochemicals supplier,-1.2930404,36.8204583,0714 599552
"Agrovets in NAirobi, Kenya",Murphy Chemicals (East Africa) Ltd,"Murphy Chemicals E A Premises, Baba Dogo Rd",Agrochemicals supplier,-1.2443111,36.8848269,020 2017992
"Agrovets in NAirobi, Kenya",Agrichem And Tools Ltd,"Winsford Industrial Park, Baba Dogo Rd",General store,-1.245425,36.884418,020 2642115
"Agrovets in NAirobi, Kenya",Agroline Equipment & Tools Limited (MyAgrovet Kenya),Farm equipment supplier,Farm equipment supplier,0.1545604,37.9083314,0113 694511
"Agrovets in NAirobi, Kenya",Agroduka,Airport N Rd,E-commerce service,-1.3297498,36.8893026,0712 723830
"Agrovets in Trans Nzoia, Kenya",Paves Vetagro Limited,"2282+QCG, Moi Street",Agrochemicals supplier,1.0169425,35.0010929,0721 832700
"Agrovets in Trans Nzoia, Kenya",Trans County Agrovet,"2293+C67, Kwanza - Kapenguria Road",Veterinary care,1.0185282,35.0030593,0700 054762
"Agrovets in Trans Nzoia, Kenya",KARIMI AGROVET,"Matunda B, Shop No 3",Agricultural service,1.0221613,34.9987109,0113 041748
"Agrovets in Trans Nzoia, Kenya",Rift Farmers Agrovet,"Pakawa Building, Opposite K. C. B, At Moi's Bridge, Eldoret-Kitale Rd",Agrochemicals supplier,0.8760018,35.1202517,0722 403758
"Agrovets in Trans Nzoia, Kenya",Kapkisem Agrovet/M-Pesa,2292+JWM Lukhome market,Home goods store,1.0190788,35.0022822,0772 324778
"Agrovets in Trans Nzoia, Kenya",Testai Agrovet,"V4G9+QXP, Kitale Eldoret Highway, Eldoret-Kitale Rd",Agricultural service,0.8769547,35.1199614,0728 501455
"Agrovets in Trans Nzoia, Kenya",Wasima Agrovet,Kitale - Eldoret Highway near Dantex Petrol station,Agricultural service,0.9852808,35.0125531,0113 513449
"Agrovets in Trans Nzoia, Kenya",Baolanda Agrovet,"22C2+855, Opposite Total Petrol Station, Kitale, Laini Moja Street",Agriculture,1.0207574,35.0004887,0712 590454
"Agrovets in Trans Nzoia, Kenya",Brand Agro Limited,22QM+FF,Agrochemicals supplier,1.038479,35.0333699,0728 850814
"Agrovets in Trans Nzoia, Kenya",Hecter Farm Agrovet & Farminputs,Kitale - Suam Rd,Farmers' market,1.1856495,34.826986,0712 611879
"Agrovets in Trans Nzoia, Kenya",PAFANA ENTERPRISES AGROVET,Laini moja,Agricultural production,1.0208326,35.0000238,0732 627264
"Agrovets in Trans Nzoia, Kenya",Botanic Agro - Vet,"Next To Lasy Coach, Moi Ave",Agricultural service,1.0147383,35.0025444,0714 676676
"Agrovets in Trans Nzoia, Kenya",JIREH AGROVET,"3432+4QJ, SIBANGA MAILI SABA ROAD",Agrochemicals supplier,1.0528259,35.1018809,0799 878835
"Agrovets in Trans Nzoia, Kenya",Neema Agrovet,"Opposite KFA, Moi's Bridge, Eldoret-Kitale Rd",Agricultural service,0.8785604,35.1200798,0718 676731
"Agrovets in Trans Nzoia, Kenya",Mkulima Agrovet,"2283+VGX, Kwanza - Kapenguria Road",Agriculture,1.0172402,35.0038599,0708 777017
"Agrovets in Trans Nzoia, Kenya",BARAKA AGROVET,Agrochemicals supplier,Agrochemicals supplier,0.9832265,35.0253004,0725 395867
"Agrovets in Trans Nzoia, Kenya",Mkulima Agro-vet By John Bosire,QQMQ+MMH,Agrochemicals supplier,0.7841887,34.789246,0733 922688
"Agrovets in Trans Nzoia, Kenya",Paves Vetagro Limited,434,Agricultural service,1.2587761,35.0964586,0721 832700
"Agrovets in Trans Nzoia, Kenya",Happy Farm Agrovet,"Makutano - Lodwar Road, Opposite Ola Petrol Station",Agrochemicals supplier,1.259451,35.0983138,0757 168609
"Agrovets in Trans Nzoia, Kenya",Anifarm Agrovet,"At, Eldoret-Kitale Rd",Animals,0.874746,35.1203866,0701 865587
"Agrovets in Trans Nzoia, Kenya",Allutah's Agrovet Kamukuywa,QQHQ+RV7,Agrochemicals supplier,0.7795364,34.7896832,0723 940321
"Agrovets in Trans Nzoia, Kenya",LUCHENDI AGROVET,QQM4+WXP,Veterinary care,0.7848467,34.7574553,0740 351833
"Agrovets in Trans Nzoia, Kenya",KAWANGWARE 46 AGROVET,Gitanga Rd,Veterinary care,0.9072876,35.48589,0721 487063
"Agrovets in Trans Nzoia, Kenya",LUNAR AGROVET,"Main Street,Cheptais",Veterinary care,0.828728,34.454996,055 30291
"Agrovets in Trans Nzoia, Kenya",Greenbelt Agrovet,Veterinary pharmacy,Veterinary pharmacy,0.830773,35.1211232,0797 400197
"Agrovets in Trans Nzoia, Kenya",Ndalu Agrovet,RXRV+GCM,Agricultural production,0.8413255,34.9935583,0723 698464
"Agrovets in Trans Nzoia, Kenya",Tulin Agrovet,"X6JC+Q5C, C48",Agrochemicals supplier,0.9819297,35.2203986,0714 443999
"Agrovets in Trans Nzoia, Kenya",THE CROWN ROYALE AGROVET KIMININI,"Off ndalu road,opposite glory inn",Agrochemicals supplier,0.8897561,34.926419,0780 305180
"Agrovets in Trans Nzoia, Kenya",Nabongo Agrovet,Ambwere Plaza,Agrochemicals supplier,1.0150266,35.0007345,0792 594367
"Agrovets in Trans Nzoia, Kenya",Tehila Agrovet,RPR8+C5,General store,0.8409157,34.7154235,0726 067183
"Agrovets in Nanyuki, Kenya",Northland Farmers Agrovet,,Agrochemicals supplier,0.0114891,37.0752194,0722 661338
"Agrovets in Nanyuki, Kenya",Mwihoko Agrovet,Nyeri - Nanyuki Rd,Agricultural service,0.000141,37.0705035,0720 662465
"Agrovets in Nanyuki, Kenya",Hope farm agrovet nanyuki,Irura road,Agricultural service,0.0018551,37.074024,0768 855262
"Agrovets in Nanyuki, Kenya",Nosidan Agrovet,"Nanyuki Lumumba Rd Baraka Bldg, Laikipia East",Business administration service,0.017124,37.075263,062 2031184
"Agrovets in Nanyuki, Kenya",Spur Agrovet,Juakali,Agrochemicals supplier,0.1292639,37.0299081,0729 241843
"Agrovets in Machakos, Kenya",Sephkim Agrovet,"F7J9+8HM, Ground Floor, Shanbap House, Off Machakos Wote Road",Animal feed store,-1.5191717,37.2689103,0722 687664
"Agrovets in Machakos, Kenya",Farm Care Agrovet,"F7J9+8H4, Ground Floor, Shanbad House, Off Machakos Wote Road",Animal feed store,-1.519237,37.2689449,0726 248347
"Agrovets in Machakos, Kenya",Muthetheni Agrovet,"F7H9+VX9, Near Co - Operative Bank, Syokimau Ave",Agrochemicals supplier,-1.5203402,37.2699726,0717 770223
"Agrovets in Machakos, Kenya",Riziki Agrovet,"F7HC+W79, Near Masaku Market, Ngei Road",Agrochemicals supplier,-1.5202036,37.2707316,0720 884078
"Agrovets in Machakos, Kenya",Sheba Agrovet,mashariki bus park Machakos Central,Agrochemicals supplier,-1.521422,37.2689811,0712 741297
"Agrovets in Machakos, Kenya",Agrovet Seeds,"F7J9+6VQ, Opposite Kiamba Mall, Syokimau Ave",Agrochemicals supplier,-1.5194119,37.2697433,0735 550238
"Agrovets in Machakos, Kenya",Makamithi Enterprises Ltd,Mbolu Malu Rd,Agrochemicals supplier,-1.5182444,37.2656056,0707 069409
"Agrovets in Machakos, Kenya",Asal Agro - Vet,"F7H9+MG7, Mdcli Garrage, Syokimau Road, Makutano - Kitui Rd",Veterinary care,-1.5208459,37.2688074,0720 496858
"Agrovets in Kiambu, Kenya",Brilliance House Agrovet,Biashara St,Agricultural product wholesaler,-1.1710437,36.8280228,0111 847294
"Agrovets in Kiambu, Kenya",Felison Agrovet,"Ann's arcade, Karuri Kiambu Rd",Animal hospital,-1.173178,36.8313286,0729 223746
"Agrovets in Kiambu, Kenya",Sepros Limited,"RRHG+RXV, Ground Floor, Peflo Centre, Kiambu Rd",Agrochemicals supplier,-1.1703818,36.8274098,0721 843872
"Agrovets in Kiambu, Kenya",Goodwish Agrovet,Kiambu Rd,Veterinarian,-1.1618962,36.8219568,0722 243563
"Agrovets in Kiambu, Kenya",Micmos Agrovet and Animal feeds,"Thindigwa, Kiambu Rd",Animal feed store,-1.201234,36.8348476,0708 795373
"Agrovets in Kiambu, Kenya",Githurai 45 Agrovet,Mwihoko Rd,Hay supplier,-1.2080962,36.9261452,0798 395262
"Agrovets in Kiambu, Kenya",Sheqel Investments,"Township, Kiambu Rd",Hardware store,-1.1696209,36.8268987,0725 623013
"Agrovets in Kiambu, Kenya",TWI HAMWE AGROVET,"Kiambu road, Thindigua, High view plaza, NEXT TO RUBIS PETROL STATION",Agricultural service,-1.1971465,36.8368341,0763 555561
"Agrovets in Kiambu, Kenya",Davetis Nature Farm Agrovet,"Bay side, Kenyatta Road",Animal feed store,-1.1232298,37.0102549,0741 024007
"Agrovets in Kiambu, Kenya",Agro-Pests Solutions Agrovet (Githurai branch),45 Thika Rd,Agrochemicals supplier,-1.2070373,36.9150568,0792 400331
"Agrovets in Kiambu, Kenya",Airtel Money Felison Agrovet,"Ground Floor, Mmm Buiding, Biashara Street, After Kiambu Police Station",Money transfer service,-1.175111,36.830323,0733 100111
"Agrovets in Kiambu, Kenya",Carefarm Agrovet ruaka square,Limuru Rd,Agricultural service,-1.206174,36.7819658,0707 352247
"Agrovets in Kiambu, Kenya",Carefarm Agrovet ruaka,Ruaka rs opposite cleanshelf supermarket KE,Veterinary pharmacy,-1.2064485,36.7845207,0722 203578
"Agrovets in Kiambu, Kenya",Waikiki Agrovet Supplies,"VX26+G9C, Ground Floor, Bushgate Towers, Railways Street, Ruiru, Ruiru Kamiti Road",Agrochemicals supplier,-1.1486989,36.9608933,0710 652867
"Agrovets in Kiambu, Kenya",Jaymaish Pet shop & Agrovet Ruaka Runda,Pet store,Pet store,-1.2082384,36.7874903,0702 745381
"Agrovets in Kiambu, Kenya",Sunrise Agro-Vet,3rd Sunrise Avenue,Veterinary pharmacy,-1.1675447,36.9683983,0722 684997
"Agrovets in Kiambu, Kenya",Limuru Agrovet Suppliers,"Njengi Plaza, Rongai Market Rd",Arborist service,-1.2836681,36.8248773,0714 328322
"Agrovets in Kiambu, Kenya",Progressive Agrovet,"QWRG+QCF, Miski House, Progressive, Off Thika Road",Agrochemicals supplier,-1.2080624,36.9260373,0722 657487
"Agrovets in Kiambu, Kenya",Masimba Agrovet Ltd,"PWF5+4C6, Opposite Mama Villa, After Masimba Bus Stage, Kayole Spine Rd",Agrochemicals supplier,-1.2772066,36.9085091,0721 794880
"Agrovets in Kiambu, Kenya",Nexus Agrovet and Veterinary Services,Mwihoko Road,Agrochemicals supplier,-1.20617,36.9583438,0726 080190
"Agrovets in Kiambu, Kenya",Bonnie Agrovet Shop,Agrochemicals supplier,Agrochemicals supplier,-1.2134096,36.9049005,0792 696104
"Agrovets in Kiambu, Kenya",Jukran Agrovet,"Muguga Lower - Kabete, Road",Veterinarian,-1.2202764,36.7132429,0722 629779
"Agrovets in Kiambu, Kenya",Limuru Agrovet Supplies,"VJQV+M52, Kiambu Rd",Animal feed store,-1.110863,36.642875,0714 328322
"Agrovets in Kiambu, Kenya","Farmers World Limited-(Agrovet), Nairobi","Globe Business Center, Slip road/Kijabe Street",Agricultural service,-1.2789934,36.82042,0719 535345
"Agrovets in Kiambu, Kenya",Farmcare Agrovet Juja,Mucatha Rd,Agrochemicals supplier,-1.1025381,37.0136449,0748 098408
"Agrovets in Kiambu, Kenya",Fuga Enterprises Limited,"Uthiru Shops Uthiru, Kiambu Nairobi KE",Agricultural service,-1.2638185,36.7199874,0721 369227
"Agrovets in Kiambu, Kenya",Mwiki Agrovet,"Shop No 20, Matatu Stage, Next To Mwiki Police Station, Kangundo Rd",Agrochemicals supplier,-1.2359729,36.9353572,0725 264953
"Agrovets in Kiambu, Kenya",KUZA AGROVET,Haile Selassie Ave,Agrochemicals supplier,-1.2880543,36.8293241,0759 896408
"Agrovets in Kiambu, Kenya",Co-op Kwa Jirani Discovery Agrovet Supplies,St.Annes Kiboko Secondary School,Bank,-1.2171166,36.8909121,0722 597780
"Agrovets in Kiambu, Kenya",Kilimo Agrovet,"Limuru Central Kiambu Rd, Limuru Town Njengi Plaza, Next Tecsure Emporium",Animal hospital,-1.110734,36.643132,0722 245416
"Agrovets in Kiambu, Kenya",Wikare Agrovet & Allied Services,Eastern By Pass,Agrochemicals supplier,-1.1601576,36.9410291,0720 754938
"Agrovets in Kiambu, Kenya",DIGITALAGROVET.KE,16652,Veterinarian,-1.1960816,36.9315466,0704 454609
"Agrovets in Kiambu, Kenya",Nguzo Agrovet Limited Nairobi,"Kilimabogo House, Haile Selassie Avenue",Agrochemicals supplier,-1.2880604,36.8294039,0701 004488
"Agrovets in Kiambu, Kenya",Ibex Agrochem,Ruiru Next to Railway Station,Agrochemicals supplier,-1.1490616,36.9608697,0791 151728
"Agrovets in Kiambu, Kenya",UNITY AGROVET NDENDERU,"NDENDERU MARKET CHIEFS OFFICE, LINK",Agrochemicals supplier,-1.1942299,36.7463369,0724 143253
"Agrovets in Kiambu, Kenya",Guelph Enterprise Agrovet,"PR9G+6FG, River Rd",Agricultural service,-1.281934,36.8262094,0722 746311
"Agrovets in Kiambu, Kenya",Bondeni Agrovet,"QWV9+JV8, mwihoko kiriri road",Animal feed store,-1.2059657,36.9196884,0725 649101
"Agrovets in Kiambu, Kenya",Greenland Agrovet karura,Agricultural service,Agricultural service,-1.2201585,36.7132619,0703 240175
"Agrovets in Kiambu, Kenya",Fur World Agrovet and Animal Feeds,"At kamutiini stage, Kasarani Mwiki Rd",Veterinary pharmacy,-1.2334949,36.9294856,0728 685462
"Agrovets in Kiambu, Kenya",Skylab Cropcare Limited/ Agrovet,"Shop No. G3/ G4, Ground Floor, Shepherd Arcade, Racecourse Rd.",Hardware store,-1.28563,36.830521,0725 881199
"Agrovets in Kiambu, Kenya",P.G Agrovet,R3MP+WRC,Agrochemicals supplier,-1.1653985,37.0877024,0724 775268
"Agrovets in Kiambu, Kenya",Ciira Agrovet Supplies Limited,"PR9F+PV, Keekorok Rd",Agricultural service,-1.2807645,36.8244836,0713 483593
"Agrovets in Kiambu, Kenya",Mifugo Agrovet centre,Haile Selassie Ave,Agrochemicals supplier,-1.2882678,36.828985,0757 057376
"Agrovets in Kiambu, Kenya",Smuka Vet Centre,"RRJH+P2Q, Opposite Salama Guest House, Market",Veterinarian,-1.1681555,36.8276046,0736 286786
"Agrovets in Kiambu, Kenya",Jumbo Agrovet Limited,"Lotus House, Hailes Selassie",Agrochemicals supplier,-1.2885866,36.8284003,0722 510291
"Agrovets in Kiambu, Kenya",Arise And Shine Agrovet,Fertilizer supplier,Fertilizer supplier,-1.2884592,36.8302991,0722 997996
"Agrovets in Kiambu, Kenya",Wibiliv Wakulima Mashinani Agrovet,"Richmond House, Mfangano St",Agricultural service,-1.2866874,36.8275651,0724 035888
"Agrovets in Kiambu, Kenya",Unique Agrovet Supplies,New,Animal feed store,-1.2491426,36.9426146,0791 226344
"Agrovets in Kiambu, Kenya",Omagro Agrovet & Animal Feed,"VJPR+WXQ, Rongai Road, Off Kiambu Road",Agrochemicals supplier,-1.1126662,36.6424908,0724 352247
"Agrovets in Kiambu, Kenya",Juja Farm Agrovet,"Ground Floor, Goba Plaza, Gatundu-Juja Road",Agrochemicals supplier,-1.1061188,37.014942,0707 509964
"Agrovets in Kiambu, Kenya",Greenland agrovet,Karura,Veterinarian,-1.1938186,36.7315839,0728 727181
"Agrovets in Kiambu, Kenya",PRUNERVET CENTRE,"V2V7+XV3, Unnamed Road",Veterinary pharmacy,-1.1051201,37.0146681,0790 487883
"Agrovets in Kiambu, Kenya",AGRIGUARD Agrovet,Mondlane St,Agrochemicals supplier,-1.2830722,36.823876,0703 297837
"Agrovets in Kiambu, Kenya",Wakulima Agrovet,QWV9+JCR,Veterinary care,-1.205888,36.9185018,0718 283648
"Agrovets in Kiambu, Kenya",PINE FARMERS CENTRE- AGROVET,"NOT APPLICABLE, Utawala Complex, Eastern Bypass",Agrochemicals supplier,-1.2808833,36.9642521,0700 343531
"Agrovets in Kiambu, Kenya",Nikifarmcare E A Ltd,"Starehe, Barot House, Kijabe St",General store,-1.2782927,36.8196975,020 8098171
"Agrovets in Kiambu, Kenya",NIKIFARM AGROVET SUPPLIES,Veterinarian,Veterinarian,-1.279432,36.826318,020 2244525
"Agrovets in Kiambu, Kenya",Sunton Agrovet And Animal Feeds And Chicks,"QWCC+2R8, Kasarani Mwiki Rd",Veterinary pharmacy,-1.229962,36.9220804,0707 314131
"Agrovets in Kiambu, Kenya",Farmers Trend Limited,Eastern Bypass,Agricultural service,-1.1695342,36.9702305,0790 509684
"Agrovets in Kiambu, Kenya",Farvet Animal Feed Centre,"Goshen Gardens, Block B, Kasarani Mwiki Rd",Animal feed store,-1.2170228,36.8953518,0791 226344
"Agrovets in Kiambu, Kenya",Kilimo Central Agrovet,Market Road Githunguru Duruma Rd,Veterinary care,-1.283821,36.8300316,0723 961898
"Agrovets in Kiambu, Kenya",Limuru Dawa Agrovet,Off Kiambu Rd,Agrochemicals supplier,-1.1090088,36.6417618,0722 285976
"Agrovets in Kiambu, Kenya",SHAMBA AGROVET,"KOMBO MUNYU,Eastleigh North",Farm equipment supplier,-1.2706541,36.846857,020 6762537
"Agrovets in Kiambu, Kenya",Kulima Agrovet Centre,PR6H+H88,Agricultural service,-1.2885765,36.8283297,0789 365373
"Agrovets in Kiambu, Kenya",AECARE AGROVET LTD,"Nairobi, CBD Mfangano street",Agrochemicals supplier,-1.2875561,36.8285822,0724 933554
"Agrovets in Kiambu, Kenya",JANAM AGROVET & VETERINARY SERVICES.,Veterinary pharmacy,Veterinary pharmacy,-1.2210229,36.7141068,0758 185107
"Agrovets in Kiambu, Kenya",Wakulima Agro - Vet,"PPP9+GJQ, Uthiru Shopping Centre, Naivasha Rd",Agricultural service,-1.2636629,36.7191095,0725 580701
"Agrovets in Kiambu, Kenya",Mkulima AgroVet,"PMVW+C3V, Waiyaki Way, A104",Agrochemicals supplier,-1.2563787,36.6951603,0722 659982
"Agrovets in Kiambu, Kenya",B-Plan AGROVET,"PW93+4C4, Kayole Spine Rd",Veterinary care,-1.2822443,36.9035779,0710 535950
"Agrovets in Kiambu, Kenya",3 Hearts Agrovet,Amazing Grace Apartment,Veterinary pharmacy,-1.1961414,36.7812124,0111 717355
"Agrovets in Kiambu, Kenya",Rahisi Agrovet & Hardware,"RQG5+WCF, Banana, Banana Raini Rd",Hardware store,-1.1726851,36.758553,0722 283650
"Agrovets in Kiambu, Kenya",Joyland Agrovet,"RQG3+FVP, Kanunga Kiambaa Rd",Agrochemicals supplier,-1.1737973,36.7546926,0720 850456
"Agrovets in Kiambu, Kenya",NAWESO AGROVET,,Agrochemicals supplier,-1.2645935,36.7461164,0754 144899
"Agrovets in Kiambu, Kenya",Kiambu vertinary,"RRGM+H2Q, Kiambu Rd",Veterinary care,-1.1735292,36.8326032,0713 486250
"Agrovets in Kiambu, Kenya",Fair Deal Agrovet,Gitaru Mwimuto Road Wamakumi Corner House 2013 Kabete,Veterinarian,-1.2195933,36.712808,0722 298181
"Agrovets in Kiambu, Kenya",DIGICOW AFRICA LTD,Agricultural service,Agricultural service,-1.2270262,36.7276046,0743 162518
"Agrovets in Kiambu, Kenya",Annex Agrovet & Veterinary Clinic,"Ushirika Centre, Karuri Limuru Rd",Veterinarian,-1.1090453,36.6423317,0716 384602
"Agrovets in Kiambu, Kenya",RuaiI Agrovet,off kangundo Ruai,Agrochemicals supplier,-1.26735,36.989723,0720 063063
"Agrovets in Kiambu, Kenya",Agrichem And Tools Ltd,"Winsford Industrial Park, Baba Dogo Rd",General store,-1.245425,36.884418,020 2642115
"Agrovets in Kiambu, Kenya",Trinity Agrovet and veterinary services,"00218 Ngecha, NGECHA - KABUKU Rd",Veterinary pharmacy,-1.1698109,36.6674917,0718 399537
"Agrovets in Kiambu, Kenya",Omega Agrovet,"Karuri Ondiri Building, Kikuyu",Animal hospital,-1.2452599,36.6638519,0722 756384
"Agrovets in Kiambu, Kenya",Kilimo Vetcare,"Ground Floor, Kikuyu Guest House, Near P. C. E. A, Off Kikuyu - Nderi Road",Agrochemicals supplier,-1.244493,36.6638838,0720 781872
"Agrovets in Kiambu, Kenya",Kenagro Suppliers Ltd,"Greenvalley Estate, Along Ruiru Eastern Bypass (CORNER STAGE",Agrochemicals supplier,-1.1877363,36.9986322,0725 538297
Agrovets in Kakamega County,Orijo Agrovet,Ingotse-Matiha,Agricultural service,0.2824495,34.7501963,0719 233307
Agrovets in Kakamega County,Imani Agrovet,7QP4+MFG,Agrochemicals supplier,0.2866961,34.7561908,0722 717581
Agrovets in Kakamega County,Siberian Agrovet,LURAMBI Kakamega Township,Agrochemicals supplier,0.2951461,34.7633907,0723 769305
Agrovets in Kakamega County,Kot Agrovet,Sudi Road Kakato Kakamega Township,Store,0.2848787,34.7540448,0720 516367
Agrovets in Kakamega County,Pregen Maraba Agrovet,Maraba,Agrochemicals supplier,0.2910669,34.7477647,0705 318102
Agrovets in Kakamega County,Anga Agrovet,7PJG+F9R,Agrochemicals supplier,0.2812283,34.725883,0702 248670
Agrovets in Kakamega County,Dixa agrovet ltd,CANON AWARI,Agricultural service,0.2834775,34.7511629,0701 743644
Agrovets in Kakamega County,Animalia Agrovet,Ingotse-Matiha,Agricultural service,0.2864618,34.7542239,0721 803994
Agrovets in Kakamega County,LINGO FARM AGROVET,"7PJW+RG8, C40",Veterinary care,0.2820431,34.7463168,0724 503093
Agrovets in Kakamega County,MULTIDOSH AGROVET SUPPLIES,"Moi avenue st,Sheywe",General store,0.2992441,34.7447298,0724 234246
Agrovets in Kakamega County,Lugano West Agrovet,Ingotse-Matiha,Agricultural service,0.2822733,34.7482301,0784 977915
Agrovets in Kakamega County,Amakobe Agrovet,IKOLOMANI Lurambi Sub County,Agrochemicals supplier,0.2827307,34.7518631,0722 174955
Agrovets in Kakamega County,Noel Agrovet,7QV7+GC,Agrochemicals supplier,0.2938462,34.7634954,0738 237963
Agrovets in Kakamega County,Lelar Agrovet,Lurambii Kakato,Store,0.2672785,34.7586896,0745 674939
Agrovets in Kericho County,Tropical Farmers Agrovet Ltd,Kericho Rd,Agrochemicals supplier,-0.3705728,35.2832281,0740 522124
Agrovets in Kericho County,Tulwet Farmers Agrovet Limited,"Opposite Kenya Water and Sanitation Company, Temple Rd",Agrochemicals supplier,-0.298346,35.2697802,0722 495294
Agrovets in Kericho County,Kuresoi Agrovet,"Kuresoi Center, on your way Kericho Kuresoi Kuresoi",Agrochemicals supplier,-0.2996425,35.5293544,0729 144305
Agrovets in Kericho County,Barsumei Agrovet Services,"J7MM+477, Isaac Salat Rd",Veterinary care,-0.3672176,35.2831718,0723 109773
Agrovets in Kericho County,Gifttown Agrovet,Kericho at Roret market,Veterinary pharmacy,-0.3691542,35.2857281,0769 456937
Agrovets in Kericho County,Young Farmers Agrovet,PFVH+MCH,General store,-0.2558083,35.4786039,0725 075275
Agrovets in Kericho County,Tropical Farmers Agrovet-Litein,Agrochemicals supplier,Agrochemicals supplier,-0.5864178,35.1910638,0756 522124
Agrovets in Kilifi County,Masimba Agrovet Ltd,"PWF5+4C6, Opposite Mama Villa, After Masimba Bus Stage, Kayole Spine Rd",Agrochemicals supplier,-1.2772066,36.9085091,0721 794880
Agrovets in Kilifi County,Kasarani Agrovet online deliveries Nairobi,"Goshen Gardens, Block B, Off Kasarani Mwiki Rd",Animal feed store,-1.2170228,36.8953518,0791 226344
Agrovets in Kilifi County,Tumaini Agrovet,HRW4+XGF,Animal feed store,-1.402569,36.806302,0724 447756
Agrovets in Kilifi County,Ciira Agrovet Supplies Limited,"PR9F+PV, Keekorok Rd",Agricultural service,-1.2807645,36.8244836,0713 483593
Agrovets in Kilifi County,Jumbo Agrovet Limited,"Lotus House, Hailes Selassie",Agrochemicals supplier,-1.2885866,36.8284003,0722 510291
Agrovets in Kisii County,Josemo Agrovet,Hospital road,Agrochemicals supplier,-0.6773215,34.7795459,0702 102066
Agrovets in Kisii County,Ciira Agrovet Supplies Limited,"PR9F+PV, Keekorok Rd",Agricultural service,-1.2807645,36.8244836,0713 483593
Agrovets in Kisii County,Stans Agrovet Distributors,"8QHC+954, Opposite Safaricom Center, Kisii Along, Moi Avenue",Agrochemicals supplier,-0.6716199,34.7704648,0729 972469
Agrovets in Kisii County,Adams Agrovet,8QX2+HR9,Animal feed store,-0.651095,34.7520956,0715 798855
Agrovets in Kisii County,RACHZAB AGROVET,7V3P+MPQ,Agrochemicals supplier,-0.7457762,34.8868744,0725 994893
Agrovets in Kisii County,Jumbo Agrovet Limited,"Lotus House, Hailes Selassie",Agrochemicals supplier,-1.2885866,36.8284003,0722 510291
Agrovets in Kisii County,Fame Agrovet,40200 Kisii - Kilgoris Rd,Agrochemicals supplier,-0.931409,34.8407988,0700 455353
Agrovets in Kisii County,Lukenya Agrovet Supplies Ltd,"after Namanga Road, Mombasa Road",Agricultural service,-1.4354939,36.9729539,0712 001141
Agrovets in Kisii County,Online Virtual Agrovet,Agricultural service,Agricultural service,0.1545604,37.9083314,0752 452939
Agrovets in Kisii County,Erida Agrovet,"Kisii- Keroka, road",Agrochemicals supplier,-0.777133,34.9458001,0716 419497
Agrovets in Kisii County,Timchem Agrovet,"kisii-keroka highway,opposite keroka Police station ichuni",Animal feed store,-0.7779672,34.9466186,0724 760063
Agrovets in Kisii County,Lenana Agrovet-Kitengela,Kitengela Kajiado East,Arborist service,-1.451789,36.978099,0718 575202
Agrovets in Kisii County,Anipro Feeds & Agrovet.,Nyaribari Chache,Agrochemicals supplier,-0.673763,34.771479,0710 825911
Agrovets in Kisii County,Skywizy Agrovet,"Tabaka,Riosiri, Rongo - Kisii Rd",Agrochemicals supplier,-0.6045584,34.7453333,0720 003022
Agrovets in Machakos County,Masimba Agrovet Ltd,"PWF5+4C6, Opposite Mama Villa, After Masimba Bus Stage, Kayole Spine Rd",Agrochemicals supplier,-1.2772066,36.9085091,0721 794880
Agrovets in Machakos County,Muthetheni Agrovet,"F7H9+VX9, Near Co - Operative Bank, Syokimau Ave",Agrochemicals supplier,-1.5203402,37.2699726,0717 770223
Agrovets in Machakos County,Jumbo Agrovet Limited,"Lotus House, Hailes Selassie",Agrochemicals supplier,-1.2885866,36.8284003,0722 510291
Agrovets in Machakos County,CAPITAL AGROVET,QWVJ+F7Q,Veterinary pharmacy,-1.206288,36.9307328,0725 264953
Agrovets in Machakos County,Farm Care Agrovet,"F7J9+8H4, Ground Floor, Shanbad House, Off Machakos Wote Road",Animal feed store,-1.519237,37.2689449,0726 248347
Agrovets in Machakos County,Sephkim Agrovet,"F7J9+8HM, Ground Floor, Shanbap House, Off Machakos Wote Road",Animal feed store,-1.5191717,37.2689103,0722 687664
Agrovets in Machakos County,KUZA AGROVET,Haile Selassie Ave,Agrochemicals supplier,-1.2880543,36.8293241,0759 896408
Agrovets in Machakos County,Riziki Agrovet,"F7HC+W79, Near Masaku Market, Ngei Road",Agrochemicals supplier,-1.5202036,37.2707316,0720 884078
Agrovets in Machakos County,Micmos Agrovet and Animal feeds,"Thindigwa, Kiambu Rd",Animal feed store,-1.201234,36.8348476,0708 795373
Agrovets in Machakos County,Githurai 45 Agrovet,Mwihoko Rd,Hay supplier,-1.2080962,36.9261452,0798 395262
Agrovets in Machakos County,Unique Agrovet Supplies,New,Animal feed store,-1.2491426,36.9426146,0791 226344
Agrovets in Machakos County,Agro-Pests Solutions Agrovet (Githurai branch),45 Thika Rd,Agrochemicals supplier,-1.2070373,36.9150568,0792 400331
Agrovets in Machakos County,Lukenya Agrovet Supplies Ltd,"after Namanga Road, Mombasa Road",Agricultural service,-1.4354939,36.9729539,0712 001141
Agrovets in Machakos County,Mwiki Agrovet,"Shop No 20, Matatu Stage, Next To Mwiki Police Station, Kangundo Rd",Agrochemicals supplier,-1.2359729,36.9353572,0725 264953
Agrovets in Machakos County,SHAMBA AGROVET,"KOMBO MUNYU,Eastleigh North",Farm equipment supplier,-1.2706541,36.846857,020 6762537
Agrovets in Machakos County,Vetplan Agrovet Kenchic Agent,JWJQ+4FJ,Veterinary care,-1.3696688,36.9386382,0728 355005
Agrovets in Machakos County,Kasarani Agrovet online deliveries Nairobi,"Goshen Gardens, Block B, Off Kasarani Mwiki Rd",Animal feed store,-1.2170228,36.8953518,0791 226344
Agrovets in Machakos County,Waikiki Agrovet Supplies,"VX26+G9C, Ground Floor, Bushgate Towers, Railways Street, Ruiru, Ruiru Kamiti Road",Agrochemicals supplier,-1.1486989,36.9608933,0710 652867
Agrovets in Machakos County,Limuru Agrovet Suppliers,"Njengi Plaza, Rongai Market Rd",Arborist service,-1.2836681,36.8248773,0714 328322
Agrovets in Machakos County,Mwiki Agrovet,"Shop No 20, Matatu Stage, Next To Mwiki Police Station, Kangundo Rd",Agrochemicals supplier,-1.2359729,36.9353572,0725 264953
Agrovets in Machakos County,NAWESO AGROVET,,Agrochemicals supplier,-1.2645935,36.7461164,0754 144899
Agrovets in Machakos County,FAMAKEYA AGROVET CENTRE LTD,Agricultural service,Agricultural service,-1.1478271,36.9609262,0722 555637
Agrovets in Machakos County,Agro-Pests Solutions Agrovet (Githurai branch),45 Thika Rd,Agrochemicals supplier,-1.2070373,36.9150568,0792 400331
Agrovets in Machakos County,Nguzo Agrovet Limited Nairobi,"Kilimabogo House, Haile Selassie Avenue",Agrochemicals supplier,-1.2880604,36.8294039,0701 004488
Agrovets in Machakos County,Githurai 45 Agrovet,Mwihoko Rd,Hay supplier,-1.2080962,36.9261452,0798 395262
Agrovets in Machakos County,Asal Agro - Vet,"F7H9+MG7, Mdcli Garrage, Syokimau Road, Makutano - Kitui Rd",Veterinary care,-1.5208459,37.2688074,0720 496858
Agrovets in Machakos County,Waikiki Agrovet Supplies,"VX26+G9C, Ground Floor, Bushgate Towers, Railways Street, Ruiru, Ruiru Kamiti Road",Agrochemicals supplier,-1.1486989,36.9608933,0710 652867
Agrovets in Machakos County,Bonnie Agrovet Shop,Agrochemicals supplier,Agrochemicals supplier,-1.2134096,36.9049005,0792 696104
Agrovets in Machakos County,Ha - Grigaca Agrovet Inputs Wangige,QPH7+XJ2,Agrochemicals supplier,-1.2201249,36.7140043,0721 939811
Agrovets in Machakos County,Mifugo Agrovet centre,Haile Selassie Ave,Agrochemicals supplier,-1.2882678,36.828985,0757 057376
Agrovets in Machakos County,Progressive Agrovet,"QWRG+QCF, Miski House, Progressive, Off Thika Road",Agrochemicals supplier,-1.2080624,36.9260373,0722 657487
Agrovets in Machakos County,Ciira Agrovet Supplies Limited,"PR9F+PV, Keekorok Rd",Agricultural service,-1.2807645,36.8244836,0713 483593
Agrovets in Machakos County,Kulima Agrovet Centre,PR6H+H88,Agricultural service,-1.2885765,36.8283297,0789 365373
Agrovets in Machakos County,Wibiliv Wakulima Mashinani Agrovet,"Richmond House, Mfangano St",Agricultural service,-1.2866874,36.8275651,0724 035888
Agrovets in Machakos County,Juja Farm Agrovet,"Ground Floor, Goba Plaza, Gatundu-Juja Road",Agrochemicals supplier,-1.1061188,37.014942,0707 509964
Agrovets in Machakos County,Njambi Agrovet Kayole Junction Kangundo Rd.,Kangundo Rd,Agrochemicals supplier,-1.268673,36.9931346,0758 262636
Agrovets in Machakos County,Tumaini Agrovet,"Makueni County, Kikikima Town, Near Mutitos Secondary SDA",Agrochemicals supplier,-1.3406537,36.913127,0714 379838
Agrovets in Machakos County,"Farmers World Limited-(Agrovet), Nairobi","Globe Business Center, Slip road/Kijabe Street",Agricultural service,-1.2789934,36.82042,0719 535345
Agrovets in Machakos County,RuaiI Agrovet,off kangundo Ruai,Agrochemicals supplier,-1.26735,36.989723,0720 063063
Agrovets in Machakos County,Excel Agrovet,"JW4Q+HXW, Mlolongo Stage YaJuli, Mombasa Road",Agrochemicals supplier,-1.3935139,36.9399582,0724 729059
Agrovets in Machakos County,Gratia Poultry Farm & Agrovet,Mwihoko Rd,Agrochemicals supplier,-1.2051317,36.918073,0712 749425
Agrovets in Machakos County,Green Hill Agrovet,"VX23+WJ9, Opposite Ruiru Sub - County Market, Off Ruiru Kamiti Road",Agrochemicals supplier,-1.1477182,36.9540996,0723 939407
Agrovets in Machakos County,Felison Agrovet,"Ann's arcade, Karuri Kiambu Rd",Animal hospital,-1.173178,36.8313286,0729 223746
Agrovets in Machakos County,Skylab Cropcare Limited/ Agrovet,"Shop No. G3/ G4, Ground Floor, Shepherd Arcade, Racecourse Rd.",Hardware store,-1.28563,36.830521,0725 881199
Agrovets in Machakos County,Co-op Kwa Jirani Discovery Agrovet Supplies,St.Annes Kiboko Secondary School,Bank,-1.2171166,36.8909121,0722 597780
Agrovets in Machakos County,VETMA AGROVET,Veterinarian,Veterinarian,-1.3077989,36.9034356,0790 079326
Agrovets in Machakos County,Carefarm Agrovet ruaka square,Limuru Rd,Agricultural service,-1.206174,36.7819658,0707 352247
Agrovets in Machakos County,Nexus Agrovet and Veterinary Services,Mwihoko Road,Agrochemicals supplier,-1.20617,36.9583438,0726 080190
Agrovets in Machakos County,QAVAH ANIMAL FEEDS AND AGROVET.,Kagwathi road mihango utawala,Animal feed store,-1.2852839,36.9507092,0720 693839
Agrovets in Machakos County,TWI HAMWE AGROVET,"Kiambu road, Thindigua, High view plaza, NEXT TO RUBIS PETROL STATION",Agricultural service,-1.1971465,36.8368341,0763 555561
Agrovets in Machakos County,Sunton Agrovet And Animal Feeds And Chicks,"QWCC+2R8, Kasarani Mwiki Rd",Veterinary pharmacy,-1.229962,36.9220804,0707 314131
Agrovets in Machakos County,Guelph Enterprise Agrovet,"PR9G+6FG, River Rd",Agricultural service,-1.281934,36.8262094,0722 746311
Agrovets in Machakos County,UNITY AGROVET NDENDERU,"NDENDERU MARKET CHIEFS OFFICE, LINK",Agrochemicals supplier,-1.1942299,36.7463369,0724 143253
Agrovets in Machakos County,JANAM AGROVET & VETERINARY SERVICES.,Veterinary pharmacy,Veterinary pharmacy,-1.2210229,36.7141068,0758 185107
Agrovets in Machakos County,Farmcare Agrovet Juja,Mucatha Rd,Agrochemicals supplier,-1.1025381,37.0136449,0748 098408
Agrovets in Machakos County,Kamuka Agrovet,"RW82+R39, Kahawa West, Along plaza Road Off Kahawa Station Road",Animal feed store,-1.1829655,36.9002326,0720 728333
Agrovets in Machakos County,Wikare Agrovet & Allied Services,Eastern By Pass,Agrochemicals supplier,-1.1601576,36.9410291,0720 754938
Agrovets in Machakos County,DIGITALAGROVET.KE,16652,Veterinarian,-1.1960816,36.9315466,0704 454609
Agrovets in Machakos County,Nikifarmcare E A Ltd,"Starehe, Barot House, Kijabe St",General store,-1.2782927,36.8196975,020 8098171
Agrovets in Machakos County,Baraka Agrovet,Githunguri kwa Maiko highway,Agrochemicals supplier,-1.0919091,36.8644312,0731 569046
Agrovets in Machakos County,Bondeni Agrovet,"QWV9+JV8, mwihoko kiriri road",Animal feed store,-1.2059657,36.9196884,0725 649101
Agrovets in Machakos County,B-Plan AGROVET,"PW93+4C4, Kayole Spine Rd",Veterinary care,-1.2822443,36.9035779,0710 535950
Agrovets in Machakos County,Kilimo Central Agrovet,Market Road Githunguru Duruma Rd,Veterinary care,-1.283821,36.8300316,0723 961898
Agrovets in Machakos County,Jaymaish Pet shop & Agrovet Ruaka Runda,Pet store,Pet store,-1.2082384,36.7874903,0702 745381
Agrovets in Machakos County,Lessos Agrovets,"Kapsabet main Street, Next To Baraton Building",Agrochemicals supplier,-1.2720571,36.8141827,0712 046859
Agrovets in Machakos County,Mkulima AgroVet,"PMVW+C3V, Waiyaki Way, A104",Agrochemicals supplier,-1.2563787,36.6951603,0722 659982
Agrovets in Machakos County,NIKIFARM AGROVET SUPPLIES,Veterinarian,Veterinarian,-1.279432,36.826318,020 2244525
Agrovets in Machakos County,Carefarm Agrovet ruaka,Ruaka rs opposite cleanshelf supermarket KE,Veterinary pharmacy,-1.2064485,36.7845207,0722 203578
Agrovets in Machakos County,AGRIGUARD Agrovet,Mondlane St,Agrochemicals supplier,-1.2830722,36.823876,0703 297837
Agrovets in Machakos County,Utawala Agrovet Supplies,Utawala Utawala Embakasi East,Agrochemicals supplier,-1.2889226,36.9723733,0723 870386
Agrovets in Machakos County,AECARE AGROVET LTD,"Nairobi, CBD Mfangano street",Agrochemicals supplier,-1.2875561,36.8285822,0724 933554
Agrovets in Machakos County,Ibex Agrochem,Ruiru Next to Railway Station,Agrochemicals supplier,-1.1490616,36.9608697,0791 151728
Agrovets in Machakos County,Wakulima Agrovet,QWV9+JCR,Veterinary care,-1.205888,36.9185018,0718 283648
Agrovets in Machakos County,Sunrise Agro-Vet,3rd Sunrise Avenue,Veterinary pharmacy,-1.1675447,36.9683983,0722 684997
Agrovets in Machakos County,Goodwish Agrovet,Kiambu Rd,Veterinarian,-1.1618962,36.8219568,0722 243563
Agrovets in Machakos County,Grada Agrovet (Ruiru Farmers Centre),Ruiru Kamiti Road,Agrochemicals supplier,-1.1477606,36.9610175,0722 436216
Agrovets in Machakos County,Savannah Agrovet & Hatchery Equipment,"Information House, Mfangano Street Shop D-8",Agricultural service,-1.2872008,36.8281445,0722 362981
Agrovets in Meru County,Mapema Agrovet,Main Stage,Animal feed store,0.0514721,37.6456042,0722 147558
Agrovets in Meru County,Boston Agrovet,3J5V+G7 Meru 3J5V+G7 Meru,Agrochemicals supplier,0.0588125,37.6431875,0702 813225
Agrovets in Meru County,Kianjai Agrovet,"5P6W+WQ5, Meru-Maua Stage",Agricultural service,0.1622565,37.7469981,0727 162966
Agrovets in Meru County,Farmlink Enterprises-Meru,"2MX4+32V, Opp Paramount Hotel Tom Mboya St Meru,Igembe East Tom Mboya St Meru Igembe Central Igembe",Agricultural service,0.0477338,37.6550472,064 30418
Agrovets in Meru County,Northland Farmers Agrovet,,Agrochemicals supplier,0.0114891,37.0752194,0722 661338
Agrovets in Meru County,Farmers Centre Limited Meru,Njuri Ncheke,Agrochemicals supplier,0.0467935,37.653003,0708 499936
Agrovets in Meru County,Mwihoko Agrovet,Nyeri - Nanyuki Rd,Agricultural service,0.000141,37.0705035,0720 662465
Agrovets in Meru County,Kim's Agrovet,makutano,General store,0.0521587,37.6466771,0741 290049
Agrovets in Meru County,Blue Valley Agrovet,7G9X+RRF,Agrochemicals supplier,0.2695558,37.5495593,0727 984368
Agrovets in Meru County,Polyn Agrovet Enterprises,3J5V+G7 Meru 3J5V+G7 Meru,Agrochemicals supplier,0.0588125,37.6431875,0710 298826
Agrovets in Meru County,USHINDI AGROVET.STORES,,Agricultural service,-0.1006466,37.7933724,0725 901753
Agrovets in Meru County,Farmland agrovet and hardware,VQVJ+6F8,Agrochemicals supplier,-0.1069679,37.7811985,0724 925452
Agrovets in Meru County,KIWA Wakulima Agrovet,"Wakulima, C92",Agricultural service,-0.1078736,37.78118,0711 832167
Agrovets in Meru County,Hope farm agrovet nanyuki,Irura road,Agricultural service,0.0018551,37.074024,0768 855262
Agrovets in Meru County,Runyenjes Kilimo Bora Agrovet,"Market, Meru - Nairobi Hwy",Agricultural service,-0.4235149,37.5706824,0724 574585
Agrovets in Meru County,NJENDI FARMCARE AGROVET,"WJ9W+XHW, Nyeri nyahururu highway Makutano Canaan",Agrochemicals supplier,-0.080023,36.6464588,0713 994170
Agrovets in Meru County,Aden Agrovet,138c B5,Store,-0.3278864,36.9052436,0715 966980
Agrovets in Meru County,Marubi Agrovet,"Maru B Court Building, Gakere Road",Agrochemicals supplier,-0.422492,36.9514353,0721 534681
Agrovets in Meru County,Endochem Agrovet,Karima Nyeri,Farm equipment supplier,-0.4140734,36.9504038,0712 085605
Agrovets in Meru County,Farmers friend agrovet,HCC6+8QV,Agrochemicals supplier,-0.4291273,37.4119368,0708 200255
Agrovets in Meru County,Meru Veterinary Centre,"Meru maua road, opposite shell",Farm shop,0.0566903,37.6429034,0705 486349
Agrovets in Meru County,Ranalo Agrovet,Ragengni West Uyoma,Agrochemicals supplier,-0.2674689,37.3110816,0746 183795
Agrovets in Meru County,Spur Agrovet,Juakali,Agrochemicals supplier,0.1292639,37.0299081,0729 241843
Agrovets in Meru County,fragnes agrovet,3GR9+PRX,Agrochemicals supplier,0.0918595,37.5196113,0716 728534
Agrovets in Meru County,Jofarm Veterinary Services & Vet on call,Veterinary pharmacy,Veterinary pharmacy,-0.4272159,36.9510722,0705 919232
Agrovets in Meru County,Britsol Agrovet,Embu 60100 Runyenjes Kawanjara Kawanjara junction,Agricultural service,-0.4711171,37.5575784,0727 295026
Agrovets in Meru County,Sagada Agrovet Nyeri,Agrochemicals supplier,Agrochemicals supplier,-0.4213735,36.9511863,0722 813891
Agrovets in Meru County,Nosidan Agrovet,"Nanyuki Lumumba Rd Baraka Bldg, Laikipia East",Business administration service,0.017124,37.075263,062 2031184
Agrovets in Meru County,Tumbura Agrovet,Agrochemicals supplier,Agrochemicals supplier,-0.045439,37.9259339,0711 265762
Agrovets in Meru County,Jobez Agrovet,Bisam Street West Mugirango,Animal feed store,-0.023559,37.906193,0732 407427
Agrovets in Meru County,BARAKA APEX AGROVET,Gatunga,Agrochemicals supplier,-0.101911,38.0049462,0727 130864
Agrovets in Meru County,Co-op Kwa Jirani Susan Maikuma Nasimiyu T/ A Star Agrovet,"Piru Building, Samburu",Bank,0.37,37.57,0724 309493
Agrovets in Meru County,USHINDI AGROVET,5Q2Q+52Q,Agrochemicals supplier,0.1504729,37.7876155,0727 984368
Agrovets in Meru County,Fugalima centre,Kimath Way Biashara Bldg Next to Shell Nyeri Town,Agricultural service,-0.4220066,36.9527363,0722 822143
Agrovets in Meru County,Ruiri Farmers Centre,5M35+Q4F,Veterinary pharmacy,0.1544426,37.6577979,0727 984368
Agrovets in Meru County,MAVUNO FARMERS (saddam),Gakurwene,Agrochemicals supplier,-0.0052055,37.5915471,0714 062166
Agrovets in Meru County,Jozi Agrovet,"Nyaribari chache, Menyinkwa Street nyamonewa mixed sec school",Agrochemicals supplier,-0.0239452,37.905678,0769 729799
Agrovets in Meru County,"Co-op Kwa Jirani Jackson Wangombe Wangai T/ A, Endarasha Farmcare Agrovet","Endarasha Town, Opposite Endarasha Farmers Society, Langata",Bank,-0.41,36.95,0728 114933
Agrovets in Migori County,Ndati Agrovet,Agrochemicals supplier,Agrochemicals supplier,-1.0668948,34.4703811,0722 522338
Agrovets in Migori County,Farmgro Inputs Centre - Agrovet,Migori,Farm shop,-1.070698,34.475272,0716 136084
Agrovets in Migori County,Mkulima agro-vet,40416,Store,-1.2639669,34.6546172,0710 595262
Agrovets in Migori County,Mevin Agrovet,"Nyamondo,Next To Nyamondo Secondary School",Agrochemicals supplier,-0.9453681,34.6911693,0798 364179
Agrovets in Migori County,Farm Pro Agrovet,Opposite Rongo Modern Market,Veterinary care,-0.7567664,34.6001252,0716 341514
Agrovets in Migori County,Borderpoint agrovet,Malingumu,Veterinarian,-1.2462326,34.4785206,0790 622931
Agrovets in Migori County,Airtel Money Freds Agrovet,"Ground Foor, Santech Building, Near Sopili Bus Stage, Migori - Kehancha Road",Money transfer service,-1.121644,34.53431,0733 100111
Agrovets in Migori County,Fame Agrovet,40200 Kisii - Kilgoris Rd,Agrochemicals supplier,-0.931409,34.8407988,0700 455353
Agrovets in Migori County,Mkulima Agrovet,Rionyiego-Nyamache Road,Agrochemicals supplier,-0.8591442,34.8221997,0725 622773
Agrovets in Migori County,Ombura Agrovet,"FPRP+G7Q, Next To Carolina Communications",Veterinary pharmacy,-0.5086573,34.7357192,0715 616486
Agrovets in Migori County,OBOKE AGROVET &VET SERVICES,50,Agrochemicals supplier,-0.6001158,34.5839981,0713 157300
Agrovets in Migori County,JJ-AGROVET KOYANI,KOYANI,Agrochemicals supplier,-0.5432328,34.3399527,0796 739811
Agrovets in Migori County,Farmcare Agrovet Nyakoe,9Q95+Q22,Veterinary pharmacy,-0.6306038,34.7575059,0719 624585
Agrovets in Migori County,Farmcare Agrovet/Samco general stores Nyakoe,9QH4+VQ7,Hardware store,-0.6203406,34.7569345,0795 860840
Agrovets in Migori County,Tomech Agrovet,Homa Bay-Rongo Rd,Farm shop,-0.5239234,34.4558783,0792 477620
Agrovets in Migori County,RAFIKI KAMARTINE AGROVET,5534+XFJ,Veterinary care,-0.8450312,34.1561548,0714 793331
Agrovets in Migori County,Skywizy Agrovet,"Tabaka,Riosiri, Rongo - Kisii Rd",Agrochemicals supplier,-0.6045584,34.7453333,0720 003022
Agrovets in Migori County,Vetlink agrovet,Veterinary pharmacy,Veterinary pharmacy,-0.8106253,34.6284871,0702 825531
Agrovets in Migori County,Rodi Agrovet,C20,Agricultural product wholesaler,-0.6265321,34.5043153,0722 955154
Agrovets in Migori County,Baraka Agrovet Tabaka,7M49+2QG,Veterinary pharmacy,-0.7449324,34.6694476,0729 066104
Agrovets in Migori County,Migori County Commissioner,Macalder,Government office,-1.0690437,34.4799079,0726 319450
Agrovets in Nakuru County,Menengai Agrovet & Veterinary Services,"P38F+998, Kenyatta Ave",Animal feed store,-0.2840854,36.073468,0724 224801
Agrovets in Nakuru County,Grebe Enterprises Agrovet,"P37F+GMJ, Pandit Nehru Rd",Agrochemicals supplier,-0.2861545,36.0741373,0728 561021
Agrovets in Nakuru County,RIVA AGROVET,Mburu Gichua Rd,Agrochemicals supplier,-0.2882026,36.075727,0727 525288
Agrovets in Nakuru County,MOHSON INPUTS AGROVET,Oginga Odinga Ave,Agrochemicals supplier,-0.2877426,36.0757136,0783 330499
Agrovets in Nakuru County,Vintage Agrovet Veterinary And A.I,P2JM+4PG,Veterinary care,-0.2696848,36.0343251,0705 491593
Agrovets in Nakuru County,Kangaro Agrovet,"A3,uchumi bussiness centre,London Nakuru Town West",Agricultural service,-0.2833942,36.0735832,0700 500166
Agrovets in Nakuru County,Neema Farmers Solutions Agrovet,"P5RP+5C7, Wanyororo Main Rd",Animal feed store,-0.2595915,36.186032,0722 257914
Agrovets in Nakuru County,Lanet Wega Agrovet,P596+FR8,Agrochemicals supplier,-0.2813274,36.1620769,0722 937077
Agrovets in Nakuru County,MENENGAI AGROVET ENTERPRISES,"Molo Hse, Gusii Rd",General store,-0.2874816,36.0740866,0722 808701
Agrovets in Nakuru County,ISAMAR B AGROVET,"PXXC+6JF, Kisumu Road",Animal feed store,-0.2519484,35.9715573,0710 983594
Agrovets in Nakuru County,Farmicals Agrovet,Kenyatta Lane Nakuru Town,Animal feed store,-0.2829878,36.0740994,0723 990419
Agrovets in Nakuru County,Maralix Agrovet,"Eyleen Gochoch Road, Near Sewage Treatment Plant",Agrochemicals supplier,-0.3030991,36.0796997,0720 432573
Agrovets in Nakuru County,Crystal Agrovet,"Q5M7+JX8, Kabatini Rd",Agrochemicals supplier,-0.2159553,36.1649423,0713 297997
Agrovets in Nakuru County,Lanet Farm Care Enterprises,2111 Nakuru,Agrochemicals supplier,-0.2742789,36.1752273,0790 272410
Agrovets in Nakuru County,Sylbu Agrovet,Stage one Kabarak University,Agrochemicals supplier,-0.3030447,36.0800818,0723 027769
Agrovets in Nakuru County,JK Agrovet,"dominion castle hotel,nyahururu, nakuru highway",Agricultural product wholesaler,-0.3030447,36.0800818,0775 909889
Agrovets in Nakuru County,ALPHA BROOK AGROVET,"Q4CC+Q7P, Kabatini Rd",Veterinary care,-0.2280269,36.1206891,0701 768693
Agrovets in Nakuru County,Meas Agricultural Centre Ltd,Nakuru East,Agricultural service,-0.2918015,36.0757404,0735 822675
Agrovets in Nakuru County,P.J Agrovet,Close to Kiamaina Secondary School Kiamaina,Agricultural service,-0.2284102,36.1188677,0717 465824
Agrovets in Nakuru County,FARMERS WORLD LTD NAKURU,OGINGA ODINGA AVENUE,Agrochemicals supplier,-0.2879176,36.075175,0722 360535
Agrovets in Nandi County,Riptany Agrovet,"632W+CQ3, Jean-Marie Seroney Rd",Animals,0.2010187,35.0969336,0725 010598
Agrovets in Nandi County,Kosyin Agrovet,"632W+HFR, Kisumu Rd",Agricultural service,0.2014961,35.0961276,0729 225777
Agrovets in Nandi County,Pooja Agrovet,"632W+G85, Jean-Marie Seroney Rd",Agricultural service,0.2012604,35.0958671,0704 010101
Agrovets in Nandi County,Shamba Bora Agrovet,"Soam House, Kisumu Rd",Agricultural service,0.3173201,35.1680955,0723 029183
Agrovets in Nandi County,Mooland AGROVET,Baraton juction,Farm shop,0.2282304,35.1440339,0722 157464
Agrovets in Nandi County,Baraka Agrovet,Eldoret-Kapsabet Rd Simat/Kapseret Kapseret,Hay supplier,0.3865783,35.1895081,0721 102301
Agrovets in Nandi County,Kabongwa Agrovet,"Nganiat House, Kisumu Rd",Agricultural service,0.2020557,35.1168289,0724 458795
Agrovets in Nandi County,JIIBO FARM AND SUPPLIES,Malava Boys road opposite Heritage bar.,Agricultural service,0.4462051,34.853379,0750 370088
Agrovets in Nandi County,Nagil Agrovet,Lessos Street Ollessos,Agrochemicals supplier,0.2034434,35.2895128,0720 958666
Agrovets in Nandi County,Soweto Agrovet,Talai Megun Kapseret,Agrochemicals supplier,0.2867785,35.2939057,0781 279591
Agrovets in Nandi County,Kabras Agrovet,CVW3+574,Agricultural service,0.4453788,34.8531878,0722 348158
Agrovets in Nandi County,Saltany agrovet services,99 Iten,Agricultural service,0.5142775,35.2697802,0724 971530
Agrovets in Nandi County,Exodus Agrovet,Kondele Roundabout,Animal hospital,-0.084382,34.7740104,0707 247505
Agrovets in Nandi County,Kavi Farm Agrovet,"WQ22+7H7, Opposite Good Year, Odera St",Agrochemicals supplier,-0.0993276,34.7514106,0704 404349
Agrovets in Nandi County,Pregen Maraba Agrovet,Maraba,Agrochemicals supplier,0.2910669,34.7477647,0705 318102
Agrovets in Nandi County,Kimilili Agrovets,Kimili Agrovet Soy Centre,Agrochemicals supplier,0.6698554,35.1608243,0728 882019
Agrovets in Nandi County,Benavet Agrovet,"Highway Ngenyilel, Benavet Agrovet Kenya-Uganda",Animal feed store,0.6819941,35.1550888,0722 993005
Agrovets in Nandi County,Vinsa Agrovet Bukembe,"Webuye highway,Bukembe East",Agricultural service,0.6118956,34.6542773,0701 488178
Agrovets in Nandi County,MOSOP ANIMAL FEEDS AND AGROVET,Eldoret - Nakuru Rd,Animal feed store,0.3960972,35.3290046,0723 968621
Agrovets in Nandi County,Imani Agrovet,7QP4+MFG,Agrochemicals supplier,0.2866961,34.7561908,0722 717581
Agrovets in Nandi County,Tumaini Kipkorgot Farm,B 54,Agrochemicals supplier,0.4819092,35.3446432,0721 300499
Agrovets in Nandi County,Petma Agrovet,Agrochemicals supplier,Agrochemicals supplier,-0.1726158,34.8935832,0721 429710
Agrovets in Nandi County,Bidii Farmers Agrovet Malava Kabras,Kabras Police Line,Agricultural service,0.4466148,34.8534053,0723 733776
Agrovets in Nandi County,Royal Farm Agrovet,G6XW+6H,Agrochemicals supplier,0.5492942,35.2454923,0721 621248
Agrovets in Nandi County,Jom Agrovet,Kapseret,Agrochemicals supplier,0.465431,35.2510993,0727 472116
Agrovets in Nandi County,Siberian Agrovet,LURAMBI Kakamega Township,Agrochemicals supplier,0.2951461,34.7633907,0723 769305
Agrovets in Nandi County,Peva Agrovet -Nyamasaria,Nyalenda A Kisumu,Agrochemicals supplier,-0.1142587,34.7860569,0716 832797
Agrovets in Nandi County,Wayside Agrovet,Webuye - Malaba,Veterinary care,0.5911111,34.5649106,0722 434333
Agrovets in Nandi County,Luna Agrovet,Eldoret-Malaba Highway Khalaba,Agrochemicals supplier,0.5925244,34.5521378,0720 692080
Agrovets in Nandi County,Kisumu Farm Agrovet,"WQ24+M3G jamia mosque bld, Adjacent to aghah khan hall, at the round about, Otieno Oyoo St",Agricultural service,-0.098315,34.7552002,0723 713862
Agrovets in Nandi County,TIVA AGROVET,VR4C+FQ9,Agricultural service,-0.1438387,34.821989,0720 400109
Agrovets in Nandi County,Propic Agrovet,"Kanu Market, Off Gumbi Road",Agricultural service,-0.1001868,34.7602261,0722 985960
Agrovets in Nandi County,Amanya-Agrovet,Malava Malava Malava,Agricultural service,0.376461,34.926984,0721 927628
Agrovets in Nandi County,Highlands Agrovet,Lumino Hospital,Agrochemicals supplier,0.2928197,34.6635297,0701 853375
Agrovets in Nandi County,City Agrovet,"WQ9F+5VF, Kondele, Kisumu - Vihiga Rd",Agricultural service,-0.0820581,34.7746719,0725 099584
Agrovets in Nandi County,Nyota Agrovet,"Located At Ondiek A venue In Front Of Kings Assembly, Ondiek Avenue",Veterinarian,-0.0978318,34.7652545,0722 114185
Agrovets in Nandi County,Ultra Farmcare Agrovet,Mama Fanta,Veterinary care,0.560025,34.5597868,0745 500071
Agrovets in Nandi County,Parl Agrovet,LUGARI Likuyani Sub County,Agrochemicals supplier,0.6526244,34.8757063,0741 501458
Agrovets in Nandi County,Lid - Ways Agrovet,"J2MX+HWH, Eldoret-Malaba Rd",Agricultural service,0.6339432,35.0498578,0723 117634
Agrovets in Nandi County,SAFINA FARMERS ARK - AGROVET CHAVAKALI,"School, Imani Supermarket",Agrochemicals supplier,0.1166116,34.731949,0700 802525
Agrovets in Nandi County,Jodefa Agrovets and farm supplies Bukembe,"Triple 5 Building, Old Nzoia Rd,Next to Dallas Shop",Agrochemicals supplier,0.612296,34.6557327,0724 445316
Agrovets in Nandi County,Vito Agrovet,Namgoi Area Chesumei,Agricultural service,0.2177841,35.1146972,0741 494322
Agrovets in Nandi County,Blessed Hand Agrovet,SHITOTO LURAMB Lurambi Sub County,Agricultural service,0.3002528,34.5817357,0722 740787
Agrovets in Nandi County,Molol Kipsot Agrovet,6M6C+H7J,Agrochemicals supplier,0.2114539,35.6706507,0748 122281
Agrovets in Nandi County,Weva Agrovet,"WQ22+HH4, Along Accra St, KIsumu Town, Accra St",Livestock breeder,-0.0986056,34.7514506,0733 278374
Agrovets in Nandi County,Baharini Agrovet,Agrochemicals supplier,Agrochemicals supplier,0.5888814,35.2136448,0727 675151
Agrovets in Nandi County,Safina Farmers Ark-Agrovet,"4R79+PCV, C39",Agricultural service,0.1143686,34.8185586,0722 247534
Agrovets in Nandi County,Ndwiga Agrovet,KAKAMEGA MUNICIPALITY Shinyalu Sub County,Agrochemicals supplier,0.2613993,34.840329,0748 424000
Agrovets in Nandi County,Dixa agrovet ltd,CANON AWARI,Agricultural service,0.2834775,34.7511629,0701 743644
Agrovets in Nandi County,Anga Agrovet,7PJG+F9R,Agrochemicals supplier,0.2812283,34.725883,0702 248670
Agrovets in Nandi County,omusale agrovet,Township,Animal feed store,0.5639539,34.5608964,0709 474727
Agrovets in Nandi County,Cheben Sons Agrovet,"H69M+8M5, Kitale - Eldoret Road",Pet supply store,0.5682632,35.2342459,0724 496006
Agrovets in Nandi County,"Tesha Agrovet Molem,Kisumu",Kasule,Agricultural service,-0.1228464,34.7928087,0793 808935
Agrovets in Nandi County,Lorian Agrovet,Eldoret - Nakuru Rd,Veterinary pharmacy,0.241352,35.4147223,0721 666075
Agrovets in Nandi County,Sango Agrovet,LURAMBI Lugari Sub County,Agrochemicals supplier,0.6511003,34.8761564,0724 523671
Agrovets in Nandi County,Metro Farmcare Agrovet,Veterinary care,Veterinary care,-0.0009391,34.7401765,0703 801996
Agrovets in Nandi County,Faulu Agrovet,Agrochemicals supplier,Agrochemicals supplier,0.049075,34.7274582,0722 632419
Agrovets in Nandi County,Ultimate Agrovet,"WQ9M+M3P, Kondele, Carwash - Kibos Road",Agricultural service,-0.0807882,34.7826938,0720 800997
Agrovets in Nandi County,CHESUMEI ANIMAL FEEDS & AGROVET,C51,Agrochemicals supplier,0.5539412,35.317011,0710 199515
Agrovets in Nandi County,Ebenezer (Rosuri) Agrovet Yala,"Yala Township, Kisumu - Busia Rd",Agrochemicals supplier,0.0884689,34.5397984,0724 120313
Agrovets in Nandi County,Eden Agrovet,PRMJ+47M,Agrochemicals supplier,0.7328256,34.8306721,0727 163367
Agrovets in Nandi County,LINGO FARM AGROVET,"7PJW+RG8, C40",Veterinary care,0.2820431,34.7463168,0724 503093
Agrovets in Nandi County,Animalia Agrovet,Ingotse-Matiha,Agricultural service,0.2864618,34.7542239,0721 803994
Agrovets in Nandi County,Planet Agrovet,LUGARI Lurambi Sub County,Agrochemicals supplier,0.6511003,34.8761564,0712 926604
Agrovets in Nandi County,Farmvet Agro - Vet,"Opposite Apruoth Poshomill, Off Adams Street, RWGC+C37",Farmers' market,-0.1739671,34.9201857,0716 619435
Agrovets in Nandi County,Ka Ahila Agrovet,"Kisumu West, Holo",Agrochemicals supplier,-0.0799742,34.7317762,0707 950525
Agrovets in Nandi County,MILLENIUM AGROVET -AWASI,Awasi/Onjiko,Agrochemicals supplier,-0.1616731,35.0727048,0725 829859
Agrovets in Nandi County,Raiya Agrovet and Hardware,"Kesses,Tulwet/Chiyat",Agricultural service,0.2935584,35.3258791,0789 745786
Agrovets in Nandi County,NARU Agrovet,19 Moi University,Agrochemicals supplier,0.2826668,35.2756861,0710 773743
Agrovets in Nandi County,Lake Basin Agrovet,"Kanu Market, Off Gumbi Road",Agricultural service,-0.1004097,34.7606556,0725 434933
Agrovets in Nandi County,Pilot Vestar Agrovet,Pilot Vestar Agrovet Pilot Stage Langas Kapseret,Agrochemicals supplier,0.536323,35.2451324,0797 794252
Agrovets in Nandi County,Mkulima Agrovet,"H837+R66, C 51 Road",Pet supply store,0.5545295,35.3130254,0724 453390
Agrovets in Nandi County,Berur Agrovet,opposite Tokandero stage,Agrochemicals supplier,0.5142775,35.2697802,0720 449788
Agrovets in Nandi County,Secure Farmcare Agrovet,"ground,luanda,Luanda Township",Agricultural service,0.0536726,34.5814473,0797 778515
Agrovets in Nandi County,Benlimo Agrovet Ratado - Ogada Junior,UGUNJA - RUAMBWA,Agricultural service,0.1525883,34.1321785,0719 731266
Agrovets in Nandi County,VETLINE AGROVET,Agrochemicals supplier,Agrochemicals supplier,0.4674838,35.2586694,0722 358386
Agrovets in Siaya County,Avepo Agrovets Ltd,Animal feed store,Animal feed store,0.0689447,34.0959556,0745 248822
Agrovets in Siaya County,Avepo Enterprises,"Alego Usonga, Moi Ave",State government office,0.0592696,34.2855463,0722 976171
Agrovets in Siaya County,Orrose Agrovet,Alego Usonga,Agrochemicals supplier,0.057901,34.2833082,0711 206728
Agrovets in Siaya County,Joyfarm Agrovet,"Siaya,Karapul,Next to White Hotel,Opposite Siaya Baptist Church",Agricultural product wholesaler,0.0578212,34.3143787,0795 592486
Agrovets in Siaya County,SAMIA FARMERS AGROVET,Bumala port road,Agrochemicals supplier,0.2784437,34.1190675,0725 214322
Agrovets in Siaya County,Ebenezer (Rosuri) Agrovet Yala,"Yala Township, Kisumu - Busia Rd",Agrochemicals supplier,0.0884689,34.5397984,0724 120313
Agrovets in Siaya County,Pazuri Agrovet,Olwa Road,State government office,0.1526584,34.3342465,0728 090428
Agrovets in Siaya County,Benlimo Agrovet Ratado - Ogada Junior,UGUNJA - RUAMBWA,Agricultural service,0.1525883,34.1321785,0719 731266
Agrovets in Siaya County,Afya Agrovet,Madiany West Uyoma,Agrochemicals supplier,-0.2841496,34.3230479,0745 089363
Agrovets in Siaya County,Yala Agrovet,Farm equipment supplier,Farm equipment supplier,0.0910703,34.53633,0727 139043
Agrovets in Siaya County,Dot-Com Agrovet,Market,Aquaculture farm,0.1875542,34.34976,0713 544973
Agrovets in Siaya County,Chrismi Bodi Agrovet,Bodi Market,Agrochemicals supplier,-0.1077854,34.486246,0727 744075
Agrovets in Siaya County,GREENSTAR AGROVET,Veterinary care,Veterinary care,0.0203479,34.5908679,0710 275744
Agrovets in Siaya County,Jobdan Agrovet,Siaya-Bondo Rd,State government office,-0.2385444,34.2145209,0795 368521
Agrovets in Siaya County,Wilian Agrovet -Kodiaga,Kodiaga North Gem,Agrochemicals supplier,0.1065787,34.4545444,0721 235972
Agrovets in Siaya County,Rads Agrovet,Bondo - Usenge Rd,General store,-0.111132,34.2722793,0733 688745
Agrovets in Siaya County,Real Farmers Agrovet,Agrochemicals supplier,Agrochemicals supplier,0.0223113,34.5886601,0725 327622
Agrovets in Siaya County,Weva Agrovet,"WQ22+HH4, Along Accra St, KIsumu Town, Accra St",Livestock breeder,-0.0986056,34.7514506,0733 278374
Agrovets in Siaya County,Eshiyonzo Farm Input Agrovet,"next joyrose guest house, Butere/Buchenya market, Sabatia Rd",Agricultural service,0.2317671,34.5243162,0725 758129
Agrovets in Siaya County,Nyota Agrovet,"Located At Ondiek A venue In Front Of Kings Assembly, Ondiek Avenue",Veterinarian,-0.0978318,34.7652545,0722 114185
Agrovets in Siaya County,Ka Ahila Agrovet,"Kisumu West, Holo",Agrochemicals supplier,-0.0799742,34.7317762,0707 950525
Agrovets in Siaya County,lincon agrovet Services,"Market, Odera St",Agrochemicals supplier,-0.09941,34.7512131,0717 669711
Agrovets in Siaya County,Nawal Agrovet - Mumias,"8FPQ+C33, Unnamed Road",Agrochemicals supplier,0.3360128,34.4876666,0722 555540
Agrovets in Siaya County,WIN WIN AGROVET,Agrochemicals supplier,Agrochemicals supplier,0.4933299,34.4520679,0748 288179
Agrovets in Siaya County,Secure Farmcare Agrovet,"ground,luanda,Luanda Township",Agricultural service,0.0536726,34.5814473,0797 778515
Agrovets in Siaya County,Lucky Agrovet,W9HH+RQ5,Agrochemicals supplier,-0.0704976,34.3794952,0701 525852
Agrovets in Siaya County,Happiness Agrovet,9588+67G,Agricultural service,0.3655531,34.1656903,0723 172684
Agrovets in Siaya County,PHARMCARE AGROVET,"9578+QGC, SIAYA KISUMU ROAD",Veterinary pharmacy,0.3644303,34.1662811,0700 644759
Agrovets in Siaya County,Omvico Farmstore Agrovet,"Along, Kisumu - Busia Rd",Agrochemicals supplier,0.0522287,34.5813897,0705 571229
Agrovets in Siaya County,Sally Agrovet,"Along, Kisumu - Busia Rd",Agrochemicals supplier,0.0245137,34.586823,0798 709854
Agrovets in Siaya County,Lake Basin Agrovet,"Kanu Market, Off Gumbi Road",Agricultural service,-0.1004097,34.7606556,0725 434933
Agrovets in Siaya County,Farmwise Agrovet Annex,Akala South Gem,Agrochemicals supplier,-0.0612381,34.423464,0728 907958
Agrovets in Siaya County,Makonjio Agrovet,MARAMA CENTRAL BUTERE Butere,Agricultural service,0.2198155,34.4918988,0712 409460
Agrovets in Siaya County,Ultimate Agrovet,"WQ9M+M3P, Kondele, Carwash - Kibos Road",Agricultural service,-0.0807882,34.7826938,0720 800997
Agrovets in Siaya County,Akoya Agrovet,MUMIAS MUNICIPALITY Butere Sub County,Agrochemicals supplier,0.2198155,34.4918988,0727 925252
Agrovets in Siaya County,Duma Agrovet,Central Sakwa,Agrochemicals supplier,-0.1036051,34.2701167,0727 497772
Agrovets in Siaya County,Propic Agrovet,"Kanu Market, Off Gumbi Road",Agricultural service,-0.1001868,34.7602261,0722 985960
Agrovets in Siaya County,Mwanga Agrovet,Railways Oginga Odinga Street Off Kampala Road Awori House,Farm equipment supplier,-0.1015424,34.7478191,0722 862237
Agrovets in Siaya County,Sidindi Farmers Centre Agrovet,Agrochemicals supplier,Agrochemicals supplier,0.1556831,34.3802421,0724 846603
Agrovets in Siaya County,Befa Agrovet,Agrochemicals supplier,Agrochemicals supplier,0.0541514,34.5813897,0721 747259
Agrovets in Siaya County,Bedo Agrovet,"kogelo, West Yimbo",Agrochemicals supplier,-0.0973321,34.2628244,0719 564529
Agrovets in Siaya County,RAHA LEO AGROVET,Agrochemicals supplier,Agrochemicals supplier,0.0260789,34.5859377,0708 662260
Agrovets in Siaya County,Mauna Agrovet,"North Ugenya, Kisumu - Busia Rd",Agrochemicals supplier,0.2618582,34.2251824,0721 233970
Agrovets in Siaya County,AVEPO AGROVET UGUNJA,Kisumu - Busia Rd,Agrochemicals supplier,0.183301,34.2947329,0702 800555
Agrovets in Siaya County,Queens Agrovet and Consultancy,Ugenya,Agricultural service,0.2626897,34.2250171,0725 249262
Agrovets in Siaya County,Farmbiz Agrovet,"Kiboswa Market, Kisumu - Vihiga Rd",Agricultural service,-0.0259481,34.7489297,0715 277886
Agrovets in Siaya County,Kengee agrovet,62FC+6FF,Agrochemicals supplier,0.2230541,34.0211764,0712 222486
Agrovets in Siaya County,King & Slay Agrovet Ugunja,Mosque lane,Agrochemicals supplier,0.1828442,34.2946052,0702 438862
Agrovets in Siaya County,Munene Agrovet,Mang'Uliro/E/Kabras Malava Malava,Agricultural service,0.3332218,34.4877423,0713 697551
Agrovets in Siaya County,Avepo SmartFarm,37MM+8FP,Farm school,0.0833439,34.2837048,0722 976171
Agrovets in Siaya County,Riziki Agrovet,LUGARI Butere Sub County,Agrochemicals supplier,0.3867051,34.4626657,0712 162982
Agrovets in Siaya County,Jubade Agrovet,Agrochemicals supplier,Agrochemicals supplier,0.1550691,34.3805075,0713 318678
Agrovets in Siaya County,J&C Agro-Vet,Usenge road West Yimbo,Aquaculture farm,-0.066645,34.0565295,0746 522125
Agrovets in Siaya County,Glotemex Agrovet,"Along, Kisumu - Busia Rd",Agrochemicals supplier,0.0245477,34.5870181,0758 790518
Agrovets in Siaya County,Peres Pepela Agrovet,Mumias East,Agrochemicals supplier,0.3331828,34.4878024,0710 501910
Agrovets in Siaya County,Amigo's Agrovet,Ajigo Road West Sakwa,Agrochemicals supplier,-0.0902835,34.3450086,0704 030421
Agrovets in Siaya County,Rose Agrovet,Sega-Ukwala road Ukwala Ugenya,Poultry farm,0.1944726,34.19008,0726 064989
Agrovets in Siaya County,Nyamonye Agrovet,Bondo - Usenge Rd,Fertilizer supplier,-0.0516992,34.1484032,0700 040838
Agrovets in Siaya County,Acre Agrovet Ragengni,C28,Agrochemicals supplier,-0.2697486,34.3641311,0724 307478
Agrovets in Siaya County,Farmnet Agrovet,"Sigomre, Ugunja - Ukwala Road.",Arborist service,0.1815722,34.2968349,0791 237786
Agrovets in Siaya County,Meyorgo Agrovet,Kolenyo Central Seme,Agrochemicals supplier,-0.0948054,34.469229,0759 567734
Agrovets in Siaya County,Olando Otundo Agrovet,KHWISERO Butere Sub County,Agrochemicals supplier,0.2198155,34.4918988,0716 821614
Agrovets in Siaya County,Highlands Agrovet,Lumino Hospital,Agrochemicals supplier,0.2928197,34.6635297,0701 853375
Agrovets in Siaya County,Rishin Pharma Agrovet,KAKAMEGA MUNICIPALITY Butere Sub County,Agricultural service,0.3867051,34.4626657,0729 481803
Agrovets in Siaya County,Silky Agrovet Muhanda,Kisumu - Busia Rd,Agrochemicals supplier,-0.0835748,34.7506627,0796 426018
Agrovets in Siaya County,Janam Agrovet - Rabuor,Agrochemicals supplier,Agrochemicals supplier,-0.1526368,34.8253325,0734 367173
Agrovets in Siaya County,Mwenje Agrovet,LIKUYANI Malava Sub County,Agrochemicals supplier,0.1269866,34.4919221,0712 315510
Agrovets in Siaya County,Ranalo Agrovet,Aram North Uyoma,Agrochemicals supplier,-0.217287,34.3379899,0706 013835
Agrovets in Siaya County,Abi Agrovet,Holo South West Kisumu Kisumu,Agrochemicals supplier,-0.0995908,34.596959,0798 052647
Agrovets in Siaya County,Aluka Agrovet,MARAMA CENTRAL BUTERE Butere,Veterinary care,0.2198155,34.4918988,0722 822658
Agrovets in Siaya County,Njambo Agrovet,Three Ways,Agrochemicals supplier,0.1811239,34.295185,0728 385847
Agrovets in Siaya County,Blessed Hand Agrovet,SHITOTO LURAMB Lurambi Sub County,Agricultural service,0.3002528,34.5817357,0722 740787
Agrovets in Siaya County,Believers Agrovet,Unguja - Mumias Road,Agrochemicals supplier,0.2017242,34.3607665,0718 508017
Agrovets in Siaya County,SAFINA FARMERS ARK - AGROVET CHAVAKALI,"School, Imani Supermarket",Agrochemicals supplier,0.1166116,34.731949,0700 802525
Agrovets in Siaya County,Sigomere Farmers Agrovet,Agrochemicals supplier,Agrochemicals supplier,0.2086308,34.359955,0710 208220
Agrovets in Siaya County,Aimad Enterprises Agrovet,9C62+H2,Agrochemicals supplier,0.3609918,34.3998003,0791 926615
Agrovets in Siaya County,Dic Dic Agrovet,Kombewa Central Seme,Agrochemicals supplier,-0.110082,34.525854,0725 101712
Agrovets in Siaya County,Shibale Agrovet,"4FGR+QQV, NAVAKHOLO Mumias West Sub County",Agrochemicals supplier,0.1269866,34.4919221,0711 979238
Agrovets in Siaya County,MKULIMA AGROVET BUSAGWA,Mau Mau Road,Veterinary care,0.1058142,34.057823,0722 561965
Agrovets in Siaya County,King & Sley Agrovet & Allied Services,"Alego Usonga, Ngi'ya Road Usonga",Agrochemicals supplier,0.0459748,34.3709732,0729 877416
Agrovets in Siaya County,Faulu Agrovet,Agrochemicals supplier,Agrochemicals supplier,0.049075,34.7274582,0722 632419
Agrovets in Siaya County,Menyilwa Agrovet,KAKAMEGA MUNICIPALITY Lurambi Sub County,Agrochemicals supplier,0.1269866,34.4919221,0714 320340
Agrovets in Siaya County,Jecks Agrovet,Kisumu - Busia Rd,Agrochemicals supplier,0.4599689,34.113173,0723 472307
Agrovets in Siaya County,Ronak Agrovet Ltd,KAKAMEGA MUNICIPALITY Mumias Township,Agrochemicals supplier,0.1269866,34.4919221,0710 277777
Agrovets in Siaya County,Shimanyiro Agrovet,BUTERE Lurambi Sub County,Agrochemicals supplier,0.2198155,34.4918988,0727 119993
Agrovets in Siaya County,Elmart Agrovet Ltd,"2HFP+VGP, Kisumu - Busia Rd",Veterinary pharmacy,0.0247223,34.5863372,0722 824387
Agrovets in Siaya County,Roneve Agrovet,Malava Sub County,Agrochemicals supplier,0.3867051,34.4626657,0721 780118
Agrovets in Siaya County,Safina Farmers Ark-Agrovet,"4R79+PCV, C39",Agricultural service,0.1143686,34.8185586,0722 247534
Agrovets in Siaya County,Farmline Agencies Agrovet,"Kanu Market, Off Gumbi Road",Pet supply store,-0.0999284,34.7605308,0723 675852
Agrovets in Siaya County,Joflo Agrovet,Amukura Central,Agrochemicals supplier,0.4532462,34.1294818,0722 897743
